NORAD_CAT_ID,OBJECT_NAME,OBJECT_TYPE,EPOCH,MEAN_MOTION,ECCENTRICITY,INCLINATION,RA_OF_ASC_NODE,ARG_OF_PERICENTER,MEAN_ANOMALY,BSTAR,MEAN_MOTION_DOT,MEAN_MOTION_DDOT,TLE_LINE0,TLE_LINE1,TLE_LINE2,SEMIMAJOR_AXIS,PERIOD,APOGEE,PERIGEE,DECAYED
53000.0,STARLINK-4194,PAYLOAD,2023-04-06 07:16:43,15.08839996,0.000107,53.2151,210.2903,86.7609,273.3506,0.00053129,8.178e-05,0.0,0 STARLINK-4194,1 53000U 22076Q   23096.30327562  .00008178  00000-0  53129-3 0  9990,2 53000  53.2151 210.2903 0001070  86.7609 273.3506 15.08839996 42020,6917.88,95.438,540.486,539.005,0.0
53000.0,STARLINK-4194,PAYLOAD,2023-04-06 12:02:52,15.08842477,0.0001119,53.215,209.3983,84.6397,275.4723,0.00049337,7.573e-05,0.0,0 STARLINK-4194,1 53000U 22076Q   23096.50199560  .00007573  00000-0  49337-3 0  9991,2 53000  53.2150 209.3983 0001119  84.6397 275.4723 15.08842477 41583,6917.873,95.437,540.512,538.964,0.0
53000.0,STARLINK-4194,PAYLOAD,2023-04-06 16:49:01,15.08852337,0.0001187,53.2149,208.5065,82.5938,277.5189,0.00073315,0.00011403,0.0,0 STARLINK-4194,1 53000U 22076Q   23096.70071344  .00011403  00000-0  73315-3 0  9992,2 53000  53.2149 208.5065 0001187  82.5938 277.5189 15.08852337 41615,6917.843,95.437,540.529,538.887,0.0
53000.0,STARLINK-4194,PAYLOAD,2023-04-07 11:53:39,15.08840372,0.0001159,53.2145,204.9407,72.1011,288.0108,0.00010695,1.415e-05,0.0,0 STARLINK-4194,1 53000U 22076Q   23097.49559521  .00001415  00000-0  10695-3 0  9991,2 53000  53.2145 204.9407 0001159  72.1011 288.0108 15.08840372 42207,6917.879,95.438,540.546,538.942,0.0
53000.0,STARLINK-4194,PAYLOAD,2023-04-08 13:19:49,15.08846049,0.0001205,53.2153,200.1772,106.6925,253.42,1.9341e-05,2e-07,0.0,0 STARLINK-4194,1 53000U 22076Q   23098.55543158  .00000020  00000-0  19341-4 0  9997,2 53000  53.2153 200.1772 0001205 106.6925 253.4200 15.08846049 42361,6917.862,95.437,540.561,538.893,0.0
53000.0,STARLINK-4194,PAYLOAD,2023-04-09 06:49:04,15.08838006,0.000145,53.2153,196.9064,99.4754,260.6402,6.0488e-05,6.75e-06,0.0,0 STARLINK-4194,1 53000U 22076Q   23099.28407713  .00000675  00000-0  60488-4 0  9998,2 53000  53.2153 196.9064 0001450  99.4754 260.6402 15.08838006 42478,6917.886,95.438,540.755,538.748,0.0
53000.0,STARLINK-4194,PAYLOAD,2023-04-09 09:59:50,15.08838695,0.0001459,53.2148,196.3121,103.8882,256.2273,6.4099e-05,7.32e-06,0.0,0 STARLINK-4194,1 53000U 22076Q   23099.41655659  .00000732  00000-0  64099-4 0  9993,2 53000  53.2148 196.3121 0001459 103.8882 256.2273 15.08838695 42023,6917.884,95.438,540.759,538.74,0.0
53000.0,STARLINK-4194,PAYLOAD,2023-04-09 16:21:22,15.08846336,0.0001231,53.2154,195.125,89.1029,271.0104,0.000129,1.766e-05,0.0,0 STARLINK-4194,1 53000U 22076Q   23099.68151222  .00001766  00000-0  12900-3 0  9990,2 53000  53.2154 195.1250 0001231  89.1029 271.0104 15.08846336 42060,6917.861,95.437,540.578,538.874,0.0
53000.0,STARLINK-4194,PAYLOAD,2023-04-10 08:15:14,15.08834228,0.0001177,53.2159,192.1475,127.2528,232.8572,6.1403e-05,6.89e-06,0.0,0 STARLINK-4194,1 53000U 22076Q   23100.34391922  .00000689  00000-0  61403-4 0  9995,2 53000  53.2159 192.1475 0001177 127.2528 232.8572 15.08834228 42632,6917.898,95.438,540.577,538.949,0.0
53000.0,STARLINK-4194,PAYLOAD,2023-04-10 16:12:09,15.08845561,0.0002141,53.217,190.6629,64.2093,295.912,8.651e-05,1.089e-05,0.0,0 STARLINK-4194,1 53000U 22076Q   23100.67511466  .00001089  00000-0  86510-4 0  9999,2 53000  53.2170 190.6629 0002141  64.2093 295.9120 15.08845561 42684,6917.863,95.437,541.21,538.247,0.0
53000.0,STARLINK-4194,PAYLOAD,2023-04-11 11:16:47,15.08840739,0.0001252,53.2156,187.0968,95.135,264.9785,6.6056e-05,7.64e-06,0.0,0 STARLINK-4194,1 53000U 22076Q   23101.46999313  .00000764  00000-0  66056-4 0  9990,2 53000  53.2156 187.0968 0001252  95.1350 264.9785 15.08840739 42332,6917.878,95.438,540.609,538.877,0.0
53000.0,STARLINK-4194,PAYLOAD,2023-04-12 04:46:02,15.08832078,0.0001477,53.2181,183.8286,104.4518,255.6638,3.3003e-05,2.37e-06,0.0,0 STARLINK-4194,1 53000U 22076Q   23102.19864112  .00000237  00000-0  33003-4 0  9990,2 53000  53.2181 183.8286 0001477 104.4518 255.6638 15.08832078 42911,6917.905,95.438,540.791,538.748,0.0
53000.0,STARLINK-4194,PAYLOAD,2023-04-12 11:07:35,15.08829965,0.0001523,53.2185,182.6371,113.3479,246.7673,-8.8314e-05,-1.693e-05,0.0,0 STARLINK-4194,1 53000U 22076Q   23102.46360694 -.00001693  00000-0 -88314-4 0  9990,2 53000  53.2185 182.6371 0001523 113.3479 246.7673 15.08829965 42487,6917.911,95.438,540.83,538.722,0.0
53000.0,STARLINK-4194,PAYLOAD,2023-04-13 10:58:21,15.08847376,0.0001148,53.2175,178.1759,86.2043,273.908,9.3128e-05,1.195e-05,0.0,0 STARLINK-4194,1 53000U 22076Q   23103.45719296  .00001195  00000-0  93128-4 0  9990,2 53000  53.2175 178.1759 0001148  86.2043 273.9080 15.08847376 42631,6917.858,95.437,540.517,538.929,0.0
53000.0,STARLINK-4194,PAYLOAD,2023-04-14 09:13:46,15.08818846,9.63e-05,53.2151,174.01,97.4598,262.6504,0.00035351,5.34e-05,0.0,0 STARLINK-4194,1 53000U 22076Q   23104.38456763  .00005340  00000-0  35351-3 0  9999,2 53000  53.2151 174.0100 0000963  97.4598 262.6504 15.08818846 43247,6917.945,95.439,540.476,539.144,0.0
53000.0,STARLINK-4194,PAYLOAD,2023-04-14 10:49:09,15.08836417,0.000127,53.2157,173.713,93.7259,266.3879,0.00012903,1.766e-05,0.0,0 STARLINK-4194,1 53000U 22076Q   23104.45080125  .00001766  00000-0  12903-3 0  9998,2 53000  53.2157 173.7130 0001270  93.7259 266.3879 15.08836417 42785,6917.891,95.438,540.635,538.878,0.0
53000.0,STARLINK-4194,PAYLOAD,2023-04-14 13:59:55,15.08842806,0.0001172,53.2149,173.1174,93.8164,266.2962,0.00016186,2.289e-05,0.0,0 STARLINK-4194,1 53000U 22076Q   23104.58327634  .00002289  00000-0  16186-3 0  9999,2 53000  53.2149 173.1174 0001172  93.8164 266.2962 15.08842806 43271,6917.872,95.437,540.548,538.926,0.0
53000.0,STARLINK-4194,PAYLOAD,2023-04-15 10:39:55,15.08850349,0.0001271,53.2171,169.2506,103.5139,256.5995,-1.8117e-05,-5.76e-06,0.0,0 STARLINK-4194,1 53000U 22076Q   23105.44439551 -.00000576  00000-0 -18117-4 0  9993,2 53000  53.2171 169.2506 0001271 103.5139 256.5995 15.08850349 42933,6917.849,95.437,540.593,538.834,0.0
53000.0,STARLINK-4194,PAYLOAD,2023-04-15 21:47:38,15.08840728,0.0001166,53.2175,167.1726,92.3759,267.7366,1.9177e-05,1.7e-07,0.0,0 STARLINK-4194,1 53000U 22076Q   23105.90807881  .00000017  00000-0  19177-4 0  9994,2 53000  53.2175 167.1726 0001166  92.3759 267.7366 15.08840728 43470,6917.878,95.438,540.55,538.937,0.0
53000.0,STARLINK-4194,PAYLOAD,2023-04-16 10:30:42,15.0884571,0.0001285,53.215,164.7951,90.8556,269.2583,3.7522e-05,3.09e-06,0.0,0 STARLINK-4194,1 53000U 22076Q   23106.43799657  .00000309  00000-0  37522-4 0  9992,2 53000  53.2150 164.7951 0001285  90.8556 269.2583 15.08845710 43087,6917.863,95.437,540.617,538.839,0.0
53000.0,STARLINK-4194,PAYLOAD,2023-04-16 15:16:51,15.08851735,0.0001478,53.2157,163.8996,110.4982,249.6168,0.00017684,2.528e-05,0.0,0 STARLINK-4194,1 53000U 22076Q   23106.63671045  .00002528  00000-0  17684-3 0  9995,2 53000  53.2157 163.8996 0001478 110.4982 249.6168 15.08851735 43589,6917.845,95.437,540.732,538.687,0.0
53000.0,STARLINK-4194,PAYLOAD,2023-04-17 10:21:30,15.08839102,0.000137,53.2161,160.3347,87.3562,272.7587,-5.7386e-05,-1.201e-05,0.0,0 STARLINK-4194,1 53000U 22076Q   23107.43160170 -.00001201  00000-0 -57386-4 0  9999,2 53000  53.2161 160.3347 0001370  87.3562 272.7587 15.08839102 43703,6917.883,95.438,540.696,538.8,0.0
53000.0,STARLINK-4194,PAYLOAD,2023-04-17 13:32:16,15.08841741,0.0001405,53.2159,159.7377,103.7791,256.3357,4.5917e-06,-2.15e-06,0.0,0 STARLINK-4194,1 53000U 22076Q   23107.56407966 -.00000215  00000-0  45917-5 0  9991,2 53000  53.2159 159.7377 0001405 103.7791 256.3357 15.08841741 43256,6917.875,95.437,540.712,538.768,0.0
53000.0,STARLINK-4194,PAYLOAD,2023-04-17 19:53:49,15.08834909,0.0001372,53.2164,158.5494,86.5593,273.5556,-1.9997e-05,-6.06e-06,0.0,0 STARLINK-4194,1 53000U 22076Q   23107.82904363 -.00000606  00000-0 -19997-4 0  9996,2 53000  53.2164 158.5494 0001372  86.5593 273.5556 15.08834909 43294,6917.896,95.438,540.71,538.812,0.0
53000.0,STARLINK-4194,PAYLOAD,2023-04-18 08:36:54,15.08839826,0.0001254,53.2151,156.1699,88.7527,271.3609,0.00011983,1.62e-05,0.0,0 STARLINK-4194,1 53000U 22076Q   23108.35896374  .00001620  00000-0  11983-3 0  9998,2 53000  53.2151 156.1699 0001254  88.7527 271.3609 15.08839826 43378,6917.881,95.438,540.613,538.878,0.0
53000.0,STARLINK-4194,PAYLOAD,2023-04-18 19:44:36,15.08846021,0.0001177,53.215,154.0886,85.2599,274.8528,0.00011958,1.616e-05,0.0,0 STARLINK-4194,1 53000U 22076Q   23108.82264012  .00001616  00000-0  11958-3 0  9995,2 53000  53.2150 154.0886 0001177  85.2599 274.8528 15.08846021 43910,6917.862,95.437,540.541,538.913,0.0
53000.0,STARLINK-4194,PAYLOAD,2023-04-19 08:27:41,15.08835161,0.0001285,53.2158,151.71,90.1972,269.9167,4.8601e-05,4.86e-06,0.0,0 STARLINK-4194,1 53000U 22076Q   23109.35256751  .00000486  00000-0  48601-4 0  9995,2 53000  53.2158 151.7100 0001285  90.1972 269.9167 15.08835161 43525,6917.895,95.438,540.649,538.871,0.0
53000.0,STARLINK-4194,PAYLOAD,2023-04-19 13:13:51,15.08840408,0.0001308,53.2159,150.8183,90.7023,269.4119,0.00012026,1.627e-05,0.0,0 STARLINK-4194,1 53000U 22076Q   23109.55128523  .00001627  00000-0  12026-3 0  9991,2 53000  53.2159 150.8183 0001308  90.7023 269.4119 15.08840408 44024,6917.879,95.438,540.649,538.839,0.0
53000.0,STARLINK-4194,PAYLOAD,2023-04-20 11:29:15,15.08841312,0.0001474,53.2168,146.6566,90.0826,270.0335,8.1878e-05,1.015e-05,0.0,0 STARLINK-4194,1 53000U 22076Q   23110.47864685  .00001015  00000-0  81878-4 0  9993,2 53000  53.2168 146.6566 0001474  90.0826 270.0335 15.08841312 43695,6917.876,95.437,540.761,538.722,0.0
53000.0,STARLINK-4194,PAYLOAD,2023-04-20 14:40:01,15.08843773,0.0001425,53.2165,146.0617,90.4169,269.6986,0.0001172,1.578e-05,0.0,0 STARLINK-4194,1 53000U 22076Q   23110.61112544  .00001578  00000-0  11720-3 0  9991,2 53000  53.2165 146.0617 0001425  90.4169 269.6986 15.08843773 43715,6917.869,95.437,540.72,538.748,0.0
